[{"OBJECT_NAME":"CENTISPACE-1 S15","OBJECT_ID":"2025-007K","EPOCH":"2026-03-09T03:15:01.145952","MEAN_MOTION":13.84028477,"ECCENTRICITY":0.00099311,"INCLINATION":54.9863,"RA_OF_ASC_NODE":282.4469,"ARG_OF_PERICENTER":276.248,"MEAN_ANOMALY":83.7347,"EPHEMERIS_TYPE":0,"CLASSIFICATION_TYPE":"U","NORAD_CAT_ID":62584,"ELEMENT_SET_NO":999,"REV_AT_EPOCH":6091,"BSTAR":0.00013462575,"MEAN_MOTION_DOT":9.0e-8,"MEAN_MOTION_DDOT":0},{"OBJECT_NAME":"METEOR 2-12","OBJECT_ID":"1985-013A","EPOCH":"2026-03-09T22:49:51.208032","MEAN_MOTION":13.85858491,"ECCENTRICITY":0.00151459,"INCLINATION":82.5297,"RA_OF_ASC_NODE":50.9977,"ARG_OF_PERICENTER":194.0128,"MEAN_ANOMALY":166.0615,"EPHEMERIS_TYPE":0,"CLASSIFICATION_TYPE":"U","NORAD_CAT_ID":15516,"ELEMENT_SET_NO":999,"REV_AT_EPOCH":7806,"BSTAR":4.5447025e-5,"MEAN_MOTION_DOT":6.7e-7,"MEAN_MOTION_DDOT":0}]
